CSS (TIANHE)            
1 48274U 21035A   24039.36888275  .00036547  00000+0  38853-3 0  9995
2 48274  41.4684 156.3262 0007990 325.6110  34.4212 15.63262092158772
